OBJECT_NAME,OBJECT_ID,EPOCH,MEAN_MOTION,ECCENTRICITY,INCLINATION,RA_OF_ASC_NODE,ARG_OF_PERICENTER,MEAN_ANOMALY,EPHEMERIS_TYPE,CLASSIFICATION_TYPE,NORAD_CAT_ID,ELEMENT_SET_NO,REV_AT_EPOCH,BSTAR,MEAN_MOTION_DOT,MEAN_MOTION_DDOT
SL-8 R/B,1985-006B,2026-06-17T03:55:57.019296,14.37835009,.00188789,74.0459,78.1070,325.2237,142.9000,0,U,15483,999,16832,.66871394E-4,.176E-5,0
SL-12 R/B(2),1985-042D,2026-06-17T12:42:14.022144,14.22006046,.00363465,71.1077,236.7935,327.2328,172.9046,0,U,15772,999,12858,.65877058E-4,.99E-6,0
SL-14 R/B,1985-069B,2026-06-17T10:31:21.962496,14.86515709,.00178035,82.5271,291.1295,218.2429,141.7526,0,U,15945,999,18765,.38074599E-4,.362E-5,0
SL-16 R/B,1985-097B,2026-06-17T15:02:31.732224,14.16610067,.00053941,71.0033,290.1522,110.3353,341.9062,0,U,16182,999,10138,-.19655087E-4,-.87E-6,0
SL-14 R/B,1986-006B,2026-06-17T10:55:38.446176,14.86945864,.00749394,82.5262,165.8610,302.5715,56.8280,0,U,16496,999,16403,.4603211E-4,.458E-5,0
COSMOS 1743,1986-034A,2026-06-17T12:43:04.791648,15.66967328,.00039265,82.5281,328.3671,269.4180,90.6630,0,U,16719,999,19584,.36012153E-3,.38337E-3,0
SL-14 R/B,1986-046B,2026-06-17T13:22:04.307520,14.85671188,.00216053,82.4816,345.8258,257.1384,102.7418,0,U,16792,999,14123,.33182521E-4,.313E-5,0
SL-14 R/B,1986-055B,2026-06-17T14:46:37.990272,14.85723326,.00190307,82.5203,32.7301,6.2851,50.1440,0,U,16882,999,13420,.31244645E-4,.296E-5,0
AJISAI (EGS),1986-061A,2026-06-17T13:03:51.376032,12.44516796,.00112109,50.0066,146.2965,181.4863,280.8630,0,U,16908,999,48043,-.15067393E-3,-.119E-5,0
SL-14 R/B,1987-024B,2026-06-17T13:17:56.290272,14.86213392,.00167823,82.5279,358.9057,291.9367,68.0066,0,U,17567,999,10296,.31420266E-4,.301E-5,0
COSMOS 1833,1987-027A,2026-06-17T02:35:56.880672,14.13049961,.0022788,70.9178,117.0337,55.2743,305.0520,0,U,17589,999,2436,.19662632E-3,.32E-5,0
SL-16 R/B,1987-027B,2026-06-17T03:29:34.258560,14.17171766,.00065262,71.0033,66.9165,312.3069,47.7502,0,U,17590,999,2943,-.77260419E-4,-.204E-5,0
SL-14 R/B,1987-038B,2026-06-17T14:24:38.161152,14.85445370,.00189352,82.5008,202.6830,189.7934,170.2916,0,U,17912,999,9406,.27098809E-4,.259E-5,0
COSMOS 1844,1987-041A,2026-06-17T11:03:23.496768,14.14567818,.0032887,70.8968,183.7304,235.1707,124.6321,0,U,17973,999,1769,-.55836518E-4,-.156E-5,0
SL-14 R/B,1987-055B,2026-06-16T22:53:20.691744,14.85710970,.0021718,82.4995,255.4491,48.4213,311.8860,0,U,18153,999,8467,.34177984E-4,.322E-5,0
COSMOS 1867,1987-060A,2026-06-16T23:50:38.814720,14.31515722,.0016529,65.0115,28.6011,282.1614,77.7618,0,U,18187,999,3415,.14402839E-4,-.62E-6,0
SL-14 R/B,1988-001B,2026-06-17T07:01:09.420960,14.85609652,.00164312,82.5132,101.6746,269.1784,90.7549,0,U,18749,999,5681,.36736283E-4,.342E-5,0
COSMOS 1933,1988-020A,2026-06-17T10:23:17.662848,15.18714160,.0003593,82.5121,152.1919,184.2553,175.8651,0,U,18958,999,6536,.15573007E-3,.3261E-4,0
SL-3 R/B,1988-032B,2026-06-17T13:43:49.218816,15.20842497,.00238227,97.5256,151.6124,243.5421,116.3370,0,U,19046,999,6728,.14798989E-3,.3218E-4,0
SL-16 R/B,1988-039B,2026-06-17T13:02:49.785792,14.19629596,.00222398,71.0137,217.4045,192.6408,167.4163,0,U,19120,999,97255,.39575975E-4,.36E-6,0
COSMOS 1953,1988-050A,2026-06-17T03:35:21.071616,15.29978742,.0012159,82.5077,58.0726,126.4907,233.7455,0,U,19210,999,5298,.20521654E-3,.6E-4,0
SL-8 R/B,1988-053B,2026-06-17T11:53:22.883136,14.38967486,.0019168,74.0481,288.4890,83.7237,353.7906,0,U,19257,999,99095,.52339556E-4,.136E-5,0
COSMOS 1975,1988-093A,2026-06-17T14:41:47.071968,15.29329596,.00113697,82.5186,17.2741,170.0816,190.0651,0,U,19573,999,3467,.18694923E-3,.5359E-4,0
SL-14 R/B,1988-093B,2026-06-17T11:24:10.844064,14.85742030,.00220828,82.5312,308.3743,69.5658,353.5922,0,U,19574,999,1583,.38971431E-4,.364E-5,0
SL-16 R/B,1988-102B,2026-06-17T11:59:33.253152,14.16164174,.00157785,71.0000,301.4813,224.9035,135.0813,0,U,19650,999,94102,-.51968362E-4,-.151E-5,0
INTERCOSMOS 24,1989-080A,2026-06-17T02:18:09.457920,12.59661920,.11883739,82.6065,39.7045,62.1168,309.5156,0,U,20261,999,67931,.21998125E-3,.777E-5,0
SL-14 R/B,1989-080C,2026-06-17T07:44:06.729504,12.50570803,.1228748,82.5933,109.2209,317.0926,34.0372,0,U,20262,999,67260,.69622389E-4,.233E-5,0
DELTA 1 R/B,1989-089B,2026-06-17T11:53:03.139008,14.50731484,.00692733,97.0635,0.0041,166.0115,194.3023,0,U,20323,999,91020,.65327207E-4,.23E-5,0
ARIANE 40 R/B,1990-005H,2026-06-17T14:24:51.781248,14.39927660,.00088433,98.2960,226.2039,262.8633,97.1550,0,U,20443,999,90718,.76226214E-4,.197E-5,0
DELTA 2 R/B(1),1990-008B,2026-06-17T13:44:05.710848,15.68875860,.00648978,35.5987,233.0827,118.2484,242.4826,0,U,20453,999,94176,.54778946E-3,.74176E-3,0
