SL-8 R/B                
1 15483U 85006B   26168.16385439  .00000176  00000+0  66871-4 0  9997
2 15483  74.0459  78.1070 0018878 325.2237 142.9000 14.37835009168327
SL-12 R/B(2)            
1 15772U 85042D   26168.52932896  .00000099  00000+0  65877-4 0  9992
2 15772  71.1077 236.7935 0036346 327.2328 172.9046 14.22006046128589
SL-14 R/B               
1 15945U 85069B   26168.43844864  .00000362  00000+0  38075-4 0  9993
2 15945  82.5271 291.1295 0017803 218.2429 141.7526 14.86515709187656
SL-16 R/B               
1 16182U 85097B   26168.62675616 -.00000087  00000+0 -19655-4 0  9995
2 16182  71.0033 290.1522 0005394 110.3353 341.9062 14.16610067101382
SL-14 R/B               
1 16496U 86006B   26168.45530609  .00000458  00000+0  46032-4 0  9996
2 16496  82.5262 165.8610 0074939 302.5715  56.8280 14.86945864164033
COSMOS 1743             
1 16719U 86034A   26168.52991657  .00038337  00000+0  36012-3 0  9990
2 16719  82.5281 328.3671 0003926 269.4180  90.6630 15.66967328195846
SL-14 R/B               
1 16792U 86046B   26168.55699430  .00000313  00000+0  33183-4 0  9991
2 16792  82.4816 345.8258 0021605 257.1384 102.7418 14.85671188141238
SL-14 R/B               
1 16882U 86055B   26168.61571748  .00000296  00000+0  31245-4 0  9996
2 16882  82.5203  32.7301 0019030   6.2851  50.1440 14.85723326134203
AJISAI (EGS)            
1 16908U 86061A   26168.54434463 -.00000119  00000+0 -15067-3 0  9995
2 16908  50.0066 146.2965 0011210 181.4863 280.8630 12.44516796480433
SL-14 R/B               
1 17567U 87024B   26168.55412373  .00000301  00000+0  31420-4 0  9997
2 17567  82.5279 358.9057 0016782 291.9367  68.0066 14.86213392102962
COSMOS 1833             
1 17589U 87027A   26168.10829723  .00000320  00000+0  19663-3 0  9991
2 17589  70.9178 117.0337 0022788  55.2743 305.0520 14.13049961 24367
SL-16 R/B               
1 17590U 87027B   26168.14553540 -.00000204  00000+0 -77260-4 0  9999
2 17590  71.0033  66.9165 0006526 312.3069  47.7502 14.17171766 29438
SL-14 R/B               
1 17912U 87038B   26168.60044168  .00000259  00000+0  27099-4 0  9994
2 17912  82.5008 202.6830 0018935 189.7934 170.2916 14.85445370 94069
COSMOS 1844             
1 17973U 87041A   26168.46068862 -.00000156  00000+0 -55837-4 0  9995
2 17973  70.8968 183.7304 0032887 235.1707 124.6321 14.14567818 17693
SL-14 R/B               
1 18153U 87055B   26167.95371171  .00000322  00000+0  34178-4 0  9992
2 18153  82.4995 255.4491 0021718  48.4213 311.8860 14.85710970 84672
COSMOS 1867             
1 18187U 87060A   26167.99350480 -.00000062  00000+0  14403-4 0  9990
2 18187  65.0115  28.6011 0016529 282.1614  77.7618 14.31515722 34150
SL-14 R/B               
1 18749U 88001B   26168.29247015  .00000342  00000+0  36736-4 0  9996
2 18749  82.5132 101.6746 0016431 269.1784  90.7549 14.85609652 56819
COSMOS 1933             
1 18958U 88020A   26168.43284332  .00003261  00000+0  15573-3 0  9996
2 18958  82.5121 152.1919 0003593 184.2553 175.8651 15.18714160 65365
SL-3 R/B                
1 19046U 88032B   26168.57209744  .00003218  00000+0  14799-3 0  9998
2 19046  97.5256 151.6124 0023822 243.5421 116.3370 15.20842497 67280
SL-16 R/B               
1 19120U 88039B   26168.54363178  .00000036  00000+0  39576-4 0  9993
2 19120  71.0137 217.4045 0022239 192.6408 167.4163 14.19629596972553
COSMOS 1953             
1 19210U 88050A   26168.14954944  .00006000  00000+0  20522-3 0  9996
2 19210  82.5077  58.0726 0012159 126.4907 233.7455 15.29978742 52986
SL-8 R/B                
1 19257U 88053B   26168.49540374  .00000136  00000+0  52340-4 0  9994
2 19257  74.0481 288.4890 0019168  83.7237 353.7906 14.38967486990955
COSMOS 1975             
1 19573U 88093A   26168.61235037  .00005359  00000+0  18695-3 0  9996
2 19573  82.5186  17.2741 0011369 170.0816 190.0651 15.29329596 34675
SL-14 R/B               
1 19574U 88093B   26168.47512551  .00000364  00000+0  38971-4 0  9991
2 19574  82.5312 308.3743 0022082  69.5658 353.5922 14.85742030 15830
SL-16 R/B               
1 19650U 88102B   26168.49969043 -.00000151  00000+0 -51968-4 0  9998
2 19650  71.0000 301.4813 0015778 224.9035 135.0813 14.16164174941026
INTERCOSMOS 24          
1 20261U 89080A   26168.09594280  .00000777  00000+0  21998-3 0  9998
2 20261  82.6065  39.7045 1188373  62.1168 309.5156 12.59661920679319
SL-14 R/B               
1 20262U 89080C   26168.32230011  .00000233  00000+0  69622-4 0  9998
2 20262  82.5933 109.2209 1228748 317.0926  34.0372 12.50570803672608
DELTA 1 R/B             
1 20323U 89089B   26168.49517522  .00000230  00000+0  65327-4 0  9993
2 20323  97.0635   0.0041 0069273 166.0115 194.3023 14.50731484910205
ARIANE 40 R/B           
1 20443U 90005H   26168.60059932  .00000197  00000+0  76226-4 0  9997
2 20443  98.2960 226.2039 0008843 262.8633  97.1550 14.39927660907185
DELTA 2 R/B(1)          
1 20453U 90008B   26168.57228832  .00074176  00000+0  54779-3 0  9990
2 20453  35.5987 233.0827 0064897 118.2484 242.4826 15.68875860941769
